satname,norad_id,inclination_deg,eccentricity,mean_motion_rev_per_day,perigee_km,apogee_km,l1,l2
STARLINK-1277,45369,53.0534,0.0001396,15.06402217,546.2379854507799,548.1715408710552,1 45369U 20019K   25288.84207807  .00000229  00000+0  34287-4 0  9990,2 45369  53.0534  97.4919 0001396  87.5734 272.5414 15.06402217307891
STARLINK-1281,45370,53.0541,0.0001265,15.06399693,546.3364421376173,548.0885555608256,1 45370U 20019L   25288.83831955  .00000777  00000+0  71027-4 0  9999,2 45370  53.0541  96.8816 0001265  90.4694 269.6440 15.06399693307904
STARLINK-1300,45374,53.053,0.000144,15.06410502,546.1821254504121,548.1766165652616,1 45374U 20019Q   25288.86043549  .00004458  00000+0  31788-3 0  9999,2 45374  53.0530  96.7798 0001440  88.9598 271.1556 15.06410502307903
STARLINK-1302,45375,53.0536,0.0001288,15.06400443,546.3182154880269,548.1021849268009,1 45375U 20019R   25288.87517947  .00000359  00000+0  43002-4 0  9998,2 45375  53.0536  96.7157 0001288  84.1908 275.9228 15.06400443307903
STARLINK-1304,45376,53.0523,0.0001212,15.06418608,546.3151823522257,547.9938730185359,1 45376U 20019S   25288.82727051  .00008029  00000+0  55704-3 0  9996,2 45376  53.0523  96.9300 0001212  79.7846 280.3280 15.06418608307898
STARLINK-1305,45377,53.0531,0.000121,15.13371656,525.0911134460675,526.7618968143088,1 45377U 20019T   25288.91672454  .02182511  00000+0  10962+0 0  9997,2 45377  53.0531  96.4399 0001210  85.7386 305.3577 15.13371656  5784
STARLINK-1319,45379,53.054,0.0001376,15.06395967,546.2709888676072,548.1768481923864,1 45379U 20019V   25288.84569311 -.00000163  00000+0  79817-5 0  9999,2 45379  53.0540  96.8496 0001376  93.3088 266.8058 15.06395967307902
STARLINK-1266,45383,53.0557,0.0001155,15.0639665,546.4219462805022,548.0217041691285,1 45383U 20019Z   25288.71483781 -.00000015  00000+0  17879-4 0  9991,2 45383  53.0557  77.4358 0001155  92.7445 267.3676 15.06396650308152
STARLINK-1267,45384,53.0546,0.0001207,15.0640181,546.3701216531463,548.041899455894,1 45384U 20019AA  25288.83286830 -.00003926  00000+0 -24484-3 0  9995,2 45384  53.0546  77.5623 0001207  88.3274 271.7853 15.06401810308168
STARLINK-1272,45386,53.0542,0.0001597,15.10810519,532.6230234833911,534.8306727964864,1 45386U 20019AC  25288.91672454  .02146233  00000+0  11591+0 0  9997,2 45386  53.0542  76.4935 0001597  79.1882 356.0671 15.10810519  5833
STARLINK-1274,45387,53.0368,0.0005829,15.27444252,479.45598216128747,487.455226819603,1 45387U 20019AD  25288.76257590  .00064032  00000+0  23441-2 0  9995,2 45387  53.0368  64.9129 0005829 164.9140 195.2033 15.27444252308330
STARLINK-1280,45388,53.0557,0.0001537,15.13388271,524.8148265912914,526.937120179311,1 45388U 20019AE  25288.91672454  .02174316  00000+0  10921+0 0  9998,2 45388  53.0557  96.3941 0001537  83.9193  92.8996 15.13388271  5744
STARLINK-1283,45389,53.0549,0.0001267,15.26533997,485.3132843117828,487.05270299817585,1 45389U 20019AF  25288.91672454  .00830590  00000+0  28914-1 0  9993,2 45389  53.0549  75.4740 0001267  84.1082 316.4538 15.26533997  5839
STARLINK-1284,45390,53.0538,0.0001108,15.06394159,546.4621292161164,547.9967904236128,1 45390U 20019AG  25288.71852799  .00002309  00000+0  17385-3 0  9996,2 45390  53.0538  77.4205 0001108  87.1337 272.9779 15.06394159308154
STARLINK-1292,45394,53.0477,0.0006997,15.84735168,312.3859063089958,321.7551797447077,1 45394U 20019AL  25288.91672454  .00260221  00000+0  10687-2 0  9996,2 45394  53.0477  35.9968 0006997 309.0019 341.9844 15.84735168  5989
STARLINK-1297,45395,53.0537,0.0001117,15.0639749,546.4456884442452,547.9928130306598,1 45395U 20019AM  25288.68904139  .00003084  00000+0  22584-3 0  9991,2 45395  53.0537  77.5505 0001117  92.1107 268.0010 15.06397490307337
STARLINK-1307,45397,53.0546,0.0001109,15.06402012,546.4373709837091,547.9734119261329,1 45397U 20019AP  25288.81435786  .00000973  00000+0  84224-4 0  9999,2 45397  53.0546  76.9866 0001109  91.1053 269.0064 15.06402012307991
STARLINK-1312,45398,53.0462,0.0003505,15.85971773,311.24440726974626,315.93530779687717,1 45398U 20019AQ  25288.91672454  .00357021  00000+0  13668-2 0  9997,2 45398  53.0462  35.5324 0003505 279.3111 175.0219 15.85971773  5980
STARLINK-1255,45399,53.053,0.0001423,15.17377004,512.7908828349873,514.7523200229543,1 45399U 20019AR  25288.91672454  .02078261  00000+0  93701-1 0  9991,2 45399  53.0530  66.3186 0001423 110.9133  10.0190 15.17377004  5793
STARLINK-1259,45403,53.0466,0.0002712,16.01787831,267.6647953736383,271.27045612264465,1 45403U 20019AV  25288.74745174  .00246556  37228-4  42839-3 0  9995,2 45403  53.0466  15.9223 0002712  15.7915 344.3200 16.01787831308823
STARLINK-1260,45404,53.0526,0.0002236,15.06396416,545.6740320101835,548.7710527975469,1 45404U 20019AW  25288.68258714 -.00000314  00000+0 -21453-5 0  9994,2 45404  53.0526  67.5786 0002236  91.1375 268.9870 15.06396416308000
STARLINK-1263,45405,53.055,0.0001297,15.06414088,546.2701684759595,548.0665926916827,1 45405U 20019AX  25288.80053565  .00003292  00000+0  23973-3 0  9999,2 45405  53.0550  67.0507 0001297  89.0538 271.0599 15.06414088308028
STARLINK-1265,45406,53.0545,0.000139,15.06404875,546.2339954329636,548.1592381784349,1 45406U 20019AY  25288.67521440  .00001208  00000+0  99940-4 0  9990,2 45406  53.0545  67.6142 0001390  89.2894 270.8254 15.06404875308001
STARLINK-1278,45408,53.0539,0.0001797,15.11487108,530.4223583910925,532.9057408883327,1 45408U 20019BA  25288.91672454  .02200543  00000+0  11636+0 0  9997,2 45408  53.0539  96.4823 0001797  81.4507  29.9777 15.11487108  5742
STARLINK-1296,45412,53.0551,0.0001168,15.06400166,546.4021685200887,548.019929824376,1 45412U 20019BE  25288.67889933  .00000568  00000+0  57005-4 0  9995,2 45412  53.0551  67.5961 0001168  92.2549 267.8573 15.06400166308006
STARLINK-1298,45413,53.0487,0.0007152,15.48810351,415.3428952968743,425.06724379315165,1 45413U 20019BF  25288.91672454  .00104014  00000+0  18844-2 0  9998,2 45413  53.0487  47.5543 0007152 224.2265 158.9067 15.48810351  5841
STARLINK-1309,45414,53.0557,0.0002016,15.06399439,545.8171267071039,548.6094279389208,1 45414U 20019BG  25288.69364065 -.00000362  00000+0 -53732-5 0  9991,2 45414  53.0557  67.5302 0002016  97.3840 262.7378 15.06399439307990
STARLINK-1316,45415,53.0591,0.0001213,15.06396851,546.3811632357774,548.0612551373251,1 45415U 20019BH  25288.78578862  .00000538  00000+0  55037-4 0  9996,2 45415  53.0591  67.1151 0001213  83.5405 276.5722 15.06396851308047
STARLINK-1318,45416,53.0528,0.0002569,15.58414089,390.50710499752495,393.985727996921,1 45416U 20019BJ  25288.72943227  .00057560  00000+0  74375-3 0  9994,2 45416  53.0528  40.9636 0002569 343.5030  16.5898 15.58414089308398
STARLINK-1286,45417,53.0543,0.0002569,15.0918349,536.9167427867269,540.4706103883573,1 45417U 20019BK  25288.91672454  .01839925  00000+0  10381+0 0  9994,2 45417  53.0543  96.4956 0002569  96.4156  66.0109 15.09183490  5833
STARLINK-1308,45419,53.0532,0.000124,15.06398209,546.3583031989247,548.075791002605,1 45419U 20019BM  25288.81988998 -.00000127  00000+0  10340-4 0  9992,2 45419  53.0532  96.9635 0001240  83.2912 276.8218 15.06398209307639
STARLINK-1329,45531,53.0579,0.0001803,15.06385756,546.0065658745625,548.5038623069631,1 45531U 20025A   25288.72221951 -.00001410  00000+0 -75791-4 0  9991,2 45531  53.0579  37.4029 0001803  86.7106 273.4089 15.06385756303245
STARLINK-1338,45532,53.0542,0.0001358,15.06414505,546.2266462619673,548.1075588562226,1 45532U 20025B   25288.73326817  .00000797  00000+0  72372-4 0  9997,2 45532  53.0542  37.3497 0001358  94.5460 265.5684 15.06414505303247
STARLINK-1350,45535,53.0757,7.97e-05,15.31747763,470.0517757585603,471.14346405697233,1 45535U 20025E   25288.50192860  .00013099  00000+0  43245-3 0  9999,2 45535  53.0757 352.8124 0000797  75.7285 284.3804 15.31747763303877
STARLINK-1362,45538,53.0547,0.0001065,15.0640285,546.4652744213627,547.9403718036856,1 45538U 20025H   25288.69911913  .00011921  00000+0  81778-3 0  9995,2 45538  53.0547  37.2243 0001065  87.1031 273.0079 15.06402850303245
STARLINK-1368,45540,53.0533,0.0001147,15.06407312,546.3948128928942,547.983482711199,1 45540U 20025K   25288.57107961 -.00002964  00000+0 -18015-3 0  9998,2 45540  53.0533  38.0780 0001147  87.2217 272.8904 15.06407312303215
STARLINK-1371,45542,53.0573,0.0001388,15.06398287,546.2555689329793,548.1780471500906,1 45542U 20025M   25288.60794615 -.00001556  00000+0 -85567-4 0  9995,2 45542  53.0573  37.9144 0001388  96.5125 263.6022 15.06398287303221
STARLINK-1372,45543,53.0537,0.0001303,15.06446404,546.1669856263698,547.9716943985768,1 45543U 20025N   25288.71114248 -.00011114  00000+0 -72747-3 0  9992,2 45543  53.0537  37.4497 0001303 100.0789 260.0347 15.06446404302339
STARLINK-1373,45544,53.0537,0.0001464,15.06376454,546.2698423830443,548.2976055710242,1 45544U 20025P   25288.72959884  .00001384  00000+0  11185-3 0  9992,2 45544  53.0537  37.3689 0001464 100.4540 259.6614 15.06376454303248
STARLINK-1294,45551,53.0513,0.0007422,15.56980493,391.37362141176436,401.4297466343278,1 45551U 20025W   25288.84503476  .00061221  00000+0  83301-3 0  9990,2 45551  53.0513 335.7565 0007422 357.3881   2.7090 15.56980493304121
STARLINK-1323,45553,53.0261,0.0004396,16.16410533,226.41102215673345,232.22029453395044,1 45553U 20025Y   25288.77475250  .01175649  10009-2  79151-3 0  9994,2 45553  53.0261 310.7591 0004396  50.4114 309.7309 16.16410533303168
STARLINK-1325,45554,53.0593,0.0001531,15.53821829,404.54100388574625,406.61817790587793,1 45554U 20025Z   25288.91672454  .00299063  00000+0  44110-2 0  9995,2 45554  53.0593 328.2189 0001531  80.2795 197.6916 15.53821829  5912
STARLINK-1327,45555,53.0563,0.0001523,15.06409687,546.1271427738357,548.2365949012847,1 45555U 20025AA  25288.50291124  .00003785  00000+0  27278-3 0  9993,2 45555  53.0563  18.3876 0001523 102.1334 257.9826 15.06409687303489
